HIMAWARI-8              
1 40267U 14060A   24009.90257796 -.00000254  00000+0  00000+0 0  9990
2 40267   0.0454 223.2243 0000664  90.6009 260.6789  1.00272056 33841
